[{"OBJECT_NAME":"OBJECT D","OBJECT_ID":"2023-072D","EPOCH":"2026-03-09T22:22:02.837856","MEAN_MOTION":15.56411819,"ECCENTRICITY":0.00020241,"INCLINATION":97.5083,"RA_OF_ASC_NODE":279.2529,"ARG_OF_PERICENTER":343.457,"MEAN_ANOMALY":16.6618,"EPHEMERIS_TYPE":0,"CLASSIFICATION_TYPE":"U","NORAD_CAT_ID":56746,"ELEMENT_SET_NO":999,"REV_AT_EPOCH":15536,"BSTAR":0.00095552133,"MEAN_MOTION_DOT":0.00067835,"MEAN_MOTION_DDOT":0},{"OBJECT_NAME":"STARLINK-36673","OBJECT_ID":"2026-022N","EPOCH":"2026-03-09T22:00:01.999584","MEAN_MOTION":15.68090398,"ECCENTRICITY":0.00015368,"INCLINATION":97.2847,"RA_OF_ASC_NODE":102.9137,"ARG_OF_PERICENTER":67.9373,"MEAN_ANOMALY":350.2216,"EPHEMERIS_TYPE":0,"CLASSIFICATION_TYPE":"U","NORAD_CAT_ID":67660,"ELEMENT_SET_NO":999,"REV_AT_EPOCH":608,"BSTAR":-0.019532863,"MEAN_MOTION_DOT":-0.0191887,"MEAN_MOTION_DDOT":0}]
